NORAD_CAT_ID,OBJECT_NAME,OBJECT_TYPE,EPOCH,MEAN_MOTION,ECCENTRICITY,INCLINATION,RA_OF_ASC_NODE,ARG_OF_PERICENTER,MEAN_ANOMALY,BSTAR,MEAN_MOTION_DOT,MEAN_MOTION_DDOT,TLE_LINE0,TLE_LINE1,TLE_LINE2,SEMIMAJOR_AXIS,PERIOD,APOGEE,PERIGEE,DECAYED
51964.0,STARLINK-3690,PAYLOAD,2023-05-26 15:33:29,15.08032371,9.66e-05,53.0883,279.1959,104.8243,255.2854,3.8629e-05,3.16e-06,0.0,0 STARLINK-3690,1 51964U 22025J   23146.64825797  .00000316  00000-0  38629-4 0  9992,2 51964  53.0883 279.1959 0000966 104.8243 255.2854 15.08032371 67508,6920.35,95.489,542.884,541.547,0.0
51964.0,STARLINK-3690,PAYLOAD,2023-05-27 09:03:17,15.08030721,9.72e-05,53.0878,275.9183,94.7952,265.3149,1.8655e-05,5e-08,0.0,0 STARLINK-3690,1 51964U 22025J   23147.37728487  .00000005  00000-0  18655-4 0  9993,2 51964  53.0878 275.9183 0000972  94.7952 265.3149 15.08030721 68705,6920.355,95.489,542.893,541.547,0.0
51964.0,STARLINK-3690,PAYLOAD,2023-05-27 15:25:01,15.08032772,9.87e-05,53.0874,274.7266,92.9679,267.1424,3.1033e-05,1.97e-06,0.0,0 STARLINK-3690,1 51964U 22025J   23147.64238332  .00000197  00000-0  31033-4 0  9995,2 51964  53.0874 274.7266 0000987  92.9679 267.1424 15.08032772 67659,6920.349,95.489,542.897,541.531,0.0
51964.0,STARLINK-3690,PAYLOAD,2023-05-28 00:57:38,15.08031747,9.93e-05,53.087,272.939,95.7601,264.3502,3.6863e-05,2.88e-06,0.0,0 STARLINK-3690,1 51964U 22025J   23148.04003378  .00000288  00000-0  36863-4 0  9997,2 51964  53.0870 272.9390 0000993  95.7601 264.3502 15.08031747 67710,6920.352,95.489,542.904,541.53,0.0
51964.0,STARLINK-3690,PAYLOAD,2023-05-28 12:05:42,15.08029103,0.0001065,53.0865,270.8532,98.9295,261.1816,5.712e-05,6.04e-06,0.0,0 STARLINK-3690,1 51964U 22025J   23148.50396065  .00000604  00000-0  57120-4 0  9997,2 51964  53.0865 270.8532 0001065  98.9295 261.1816 15.08029103 68878,6920.36,95.489,542.962,541.488,0.0
51964.0,STARLINK-3690,PAYLOAD,2023-05-28 13:41:08,15.08030916,0.0001096,53.0861,270.5555,100.7423,259.3691,7.4452e-05,8.74e-06,0.0,0 STARLINK-3690,1 51964U 22025J   23148.57023408  .00000874  00000-0  74452-4 0  9998,2 51964  53.0861 270.5555 0001096 100.7423 259.3691 15.08030916 67799,6920.355,95.489,542.978,541.461,0.0
51964.0,STARLINK-3690,PAYLOAD,2023-05-29 13:32:40,15.08027784,0.0001135,53.0848,266.08,90.35,269.762,1.6792e-05,-2.4e-07,0.0,0 STARLINK-3690,1 51964U 22025J   23149.56436316 -.00000024  00000-0  16792-4 0  9995,2 51964  53.0848 266.0800 0001135  90.3500 269.7620 15.08027784 67944,6920.364,95.489,543.015,541.444,0.0
51964.0,STARLINK-3690,PAYLOAD,2023-05-29 16:43:33,15.08023644,0.0001105,53.084,265.4881,108.9357,251.1753,-3.9254e-06,-3.47e-06,0.0,0 STARLINK-3690,1 51964U 22025J   23149.69691650 -.00000347  00000-0 -39254-5 0  9991,2 51964  53.0840 265.4881 0001105 108.9357 251.1753 15.08023644 69058,6920.377,95.489,543.006,541.477,0.0
51964.0,STARLINK-3690,PAYLOAD,2023-05-30 11:48:46,15.08032991,0.0001097,53.0835,261.9075,86.0475,274.064,7.9906e-05,9.59e-06,0.0,0 STARLINK-3690,1 51964U 22025J   23150.49220887  .00000959  00000-0  79906-4 0  9995,2 51964  53.0835 261.9075 0001097  86.0475 274.0640 15.08032991 68081,6920.348,95.489,542.972,541.454,0.0
51964.0,STARLINK-3690,PAYLOAD,2023-05-30 14:59:39,15.08034384,0.0001113,53.0838,261.3102,91.7546,268.3572,6.9748e-05,8e-06,0.0,0 STARLINK-3690,1 51964U 22025J   23150.62475873  .00000800  00000-0  69748-4 0  9995,2 51964  53.0838 261.3102 0001113  91.7546 268.3572 15.08034384 69191,6920.344,95.489,542.979,541.439,0.0
51964.0,STARLINK-3690,PAYLOAD,2023-05-31 00:32:15,15.08050848,0.0001096,53.0826,259.5247,129.5865,230.5222,-0.00017118,-2.951e-05,0.0,0 STARLINK-3690,1 51964U 22025J   23151.02240124 -.00002951  00000-0 -17118-3 0  9993,2 51964  53.0826 259.5247 0001096 129.5865 230.5222 15.08050848 69254,6920.294,95.487,542.917,541.4,0.0
51964.0,STARLINK-3690,PAYLOAD,2023-05-31 13:15:44,15.08133557,0.000105,53.0813,257.1398,66.5392,293.5709,-0.0013284,-0.00020965,0.0,0 STARLINK-3690,1 51964U 22025J   23151.55259314 -.00020965  00000-0 -13284-2 0  9996,2 51964  53.0813 257.1398 0001050  66.5392 293.5709 15.08133557 68242,6920.041,95.482,542.632,541.179,0.0
51964.0,STARLINK-3690,PAYLOAD,2023-06-01 00:23:48,15.08029874,0.0001008,53.081,255.0535,96.5515,263.559,7.2267e-05,8.39e-06,0.0,0 STARLINK-3690,1 51964U 22025J   23152.01653594  .00000839  00000-0  72267-4 0  9990,2 51964  53.0810 255.0535 0001008  96.5515 263.5590 15.08029874 69402,6920.358,95.489,542.92,541.525,0.0
51964.0,STARLINK-3690,PAYLOAD,2023-06-01 09:56:25,15.08016046,9.09e-05,53.0808,253.2633,105.7753,254.3337,0.00030981,4.539e-05,0.0,0 STARLINK-3690,1 51964U 22025J   23152.41418795  .00004539  00000-0  30981-3 0  9993,2 51964  53.0808 253.2633 0000909 105.7753 254.3337 15.08016046 68373,6920.4,95.49,542.894,541.636,0.0
51964.0,STARLINK-3690,PAYLOAD,2023-06-02 00:15:20,15.08036522,0.0001091,53.0799,250.5809,98.7959,261.3155,8.8067e-06,-1.49e-06,0.0,0 STARLINK-3690,1 51964U 22025J   23153.01065700 -.00000149  00000-0  88067-5 0  9998,2 51964  53.0799 250.5809 0001091  98.7959 261.3155 15.08036522 69557,6920.337,95.488,542.957,541.447,0.0
51964.0,STARLINK-3690,PAYLOAD,2023-06-02 12:58:49,15.08108598,0.0001,53.0783,248.1946,93.4553,266.6552,-0.0010526,-0.0001667,0.0,0 STARLINK-3690,1 51964U 22025J   23153.54084811 -.00016670  00000-0 -10526-2 0  9999,2 51964  53.0783 248.1946 0001000  93.4553 266.6552 15.08108598 69638,6920.117,95.484,542.674,541.29,0.0
51964.0,STARLINK-3690,PAYLOAD,2023-06-03 09:39:30,15.08032689,0.0001035,53.0776,244.32,111.1033,249.0067,2.8778e-05,1.62e-06,0.0,0 STARLINK-3690,1 51964U 22025J   23154.40243391  .00000162  00000-0  28778-4 0  9992,2 51964  53.0776 244.3200 0001035 111.1033 249.0067 15.08032689 69767,6920.349,95.489,542.93,541.498,0.0
51964.0,STARLINK-3690,PAYLOAD,2023-06-03 12:50:22,15.08030541,0.0001219,53.0753,243.7248,136.9098,223.1987,4.9944e-05,4.92e-06,0.0,0 STARLINK-3690,1 51964U 22025J   23154.53498322  .00000492  00000-0  49944-4 0  9996,2 51964  53.0753 243.7248 0001219 136.9098 223.1987 15.08030541 68697,6920.356,95.489,543.064,541.377,0.0
51964.0,STARLINK-3690,PAYLOAD,2023-06-04 11:06:29,15.08029251,0.0001029,53.074,239.5512,98.5126,261.598,4.4016e-05,4e-06,0.0,0 STARLINK-3690,1 51964U 22025J   23155.46283587  .00000400  00000-0  44016-4 0  9998,2 51964  53.0740 239.5512 0001029  98.5126 261.5980 15.08029251 68835,6920.36,95.489,542.937,541.513,0.0
51964.0,STARLINK-3690,PAYLOAD,2023-06-04 15:52:47,15.08028093,0.0001027,53.074,238.657,96.4329,263.6778,4.631e-05,4.35e-06,0.0,0 STARLINK-3690,1 51964U 22025J   23155.66166190  .00000435  00000-0  46310-4 0  9997,2 51964  53.0740 238.6570 0001027  96.4329 263.6778 15.08028093 69954,6920.363,95.489,542.939,541.517,0.0
51964.0,STARLINK-3690,PAYLOAD,2023-06-05 12:33:27,15.08028108,0.0001044,53.073,234.7811,99.1205,260.9903,-7.4926e-07,-2.97e-06,0.0,0 STARLINK-3690,1 51964U 22025J   23156.52323945 -.00000297  00000-0 -74926-6 0  9990,2 51964  53.0730 234.7811 0001044  99.1205 260.9903 15.08028108 68990,6920.363,95.489,542.951,541.506,0.0
51964.0,STARLINK-3690,PAYLOAD,2023-06-05 14:08:54,15.08027555,0.0001049,53.073,234.4829,98.1174,261.9935,1.0408e-05,-1.24e-06,0.0,0 STARLINK-3690,1 51964U 22025J   23156.58951453 -.00000124  00000-0  10408-4 0  9998,2 51964  53.0730 234.4829 0001049  98.1174 261.9935 15.08027555 69009,6920.365,95.489,542.956,541.504,0.0
51964.0,STARLINK-3690,PAYLOAD,2023-06-06 02:52:23,15.0803533,0.000112,53.0723,232.0975,87.901,272.2108,1.3753e-05,-7.2e-07,0.0,0 STARLINK-3690,1 51964U 22025J   23157.11971073 -.00000072  00000-0  13753-4 0  9996,2 51964  53.0723 232.0975 0001120  87.9010 272.2108 15.08035330 70179,6920.341,95.488,542.981,541.431,0.0
51964.0,STARLINK-3690,PAYLOAD,2023-06-06 12:25:00,15.08018641,0.000117,53.072,230.3085,63.5309,296.5801,0.00018577,2.607e-05,0.0,0 STARLINK-3690,1 51964U 22025J   23157.51736761  .00002607  00000-0  18577-3 0  9996,2 51964  53.0720 230.3085 0001170  63.5309 296.5801 15.08018641 69145,6920.392,95.49,543.067,541.447,0.0
51964.0,STARLINK-3690,PAYLOAD,2023-06-07 02:43:55,15.08035174,0.0001039,53.0718,227.625,79.4114,280.6993,7.1906e-05,8.34e-06,0.0,0 STARLINK-3690,1 51964U 22025J   23158.11383366  .00000834  00000-0  71906-4 0  9998,2 51964  53.0718 227.6250 0001039  79.4114 280.6993 15.08035174 70327,6920.342,95.488,542.926,541.487,0.0
51964.0,STARLINK-3690,PAYLOAD,2023-06-07 09:05:40,15.08030863,0.0001058,53.0716,226.4323,79.4719,280.6391,4.5394e-05,4.21e-06,0.0,0 STARLINK-3690,1 51964U 22025J   23158.37893690  .00000421  00000-0  45394-4 0  9996,2 51964  53.0716 226.4323 0001058  79.4719 280.6391 15.08030863 69279,6920.355,95.489,542.952,541.488,0.0
51964.0,STARLINK-3690,PAYLOAD,2023-06-07 21:49:09,15.08029842,0.0001057,53.0713,224.0474,77.7799,282.3309,4.3242e-05,3.87e-06,0.0,0 STARLINK-3690,1 51964U 22025J   23158.90913772  .00000387  00000-0  43242-4 0  9990,2 51964  53.0713 224.0474 0001057  77.7799 282.3309 15.08029842 69357,6920.358,95.489,542.954,541.491,0.0
51964.0,STARLINK-3690,PAYLOAD,2023-06-07 23:24:35,15.08029926,0.0001066,53.0709,223.7495,77.5032,282.6077,4.1184e-05,3.55e-06,0.0,0 STARLINK-3690,1 51964U 22025J   23158.97541278  .00000355  00000-0  41184-4 0  9993,2 51964  53.0709 223.7495 0001066  77.5032 282.6077 15.08029926 70450,6920.358,95.489,542.96,541.485,0.0
51964.0,STARLINK-3690,PAYLOAD,2023-06-08 10:32:38,15.08033588,0.0001152,53.0704,221.6632,74.5105,285.6012,4.7481e-05,4.54e-06,0.0,0 STARLINK-3690,1 51964U 22025J   23159.43933501  .00000454  00000-0  47481-4 0  9995,2 51964  53.0704 221.6632 0001152  74.5105 285.6012 15.08033588 69436,6920.346,95.489,543.009,541.414,0.0
51964.0,STARLINK-3690,PAYLOAD,2023-06-09 10:24:10,15.08035181,0.0001062,53.0698,217.1894,80.0971,280.0139,7.9745e-06,-1.62e-06,0.0,0 STARLINK-3690,1 51964U 22025J   23160.43345754 -.00000162  00000-0  79745-5 0  9990,2 51964  53.0698 217.1894 0001062  80.0971 280.0139 15.08035181 70679,6920.341,95.488,542.941,541.472,0.0
